STARLINK-30336          
1 57703U 23129F   26068.43006818 -.00025562  00000+0 -94572-3 0  9992
2 57703  43.0053 119.3118 0002777 264.8085  95.2449 15.26764582140508
TOMORROW-S3             
1 62392U 24247R   26068.49782200  .00007664  00000+0  28858-3 0  9991
2 62392  44.9999 117.9871 0000396 320.9462  39.1392 15.27672122 67708
